SENTINEL-6              
1 46984U 20086A   24166.57706677 -.00000058  00000+0  11691-4 0  9996
2 46984  66.0399 216.6912 0007921 270.2842  89.7266 12.80928706166494
